[{"OBJECT_NAME":"OBJECT A","OBJECT_ID":"2023-081A","EPOCH":"2026-03-09T22:51:43.391520","MEAN_MOTION":15.22207712,"ECCENTRICITY":0.0001697,"INCLINATION":97.3786,"RA_OF_ASC_NODE":140.8885,"ARG_OF_PERICENTER":111.1602,"MEAN_ANOMALY":248.9816,"EPHEMERIS_TYPE":0,"CLASSIFICATION_TYPE":"U","NORAD_CAT_ID":56846,"ELEMENT_SET_NO":999,"REV_AT_EPOCH":15291,"BSTAR":0.00017652669,"MEAN_MOTION_DOT":3.986e-5,"MEAN_MOTION_DDOT":0},{"OBJECT_NAME":"PEGASUS DEB","OBJECT_ID":"1994-029AES","EPOCH":"2026-03-06T17:32:52.876320","MEAN_MOTION":15.2736598,"ECCENTRICITY":0.00781089,"INCLINATION":81.9406,"RA_OF_ASC_NODE":336.1125,"ARG_OF_PERICENTER":102.4632,"MEAN_ANOMALY":258.5359,"EPHEMERIS_TYPE":0,"CLASSIFICATION_TYPE":"U","NORAD_CAT_ID":39307,"ELEMENT_SET_NO":999,"REV_AT_EPOCH":76792,"BSTAR":0.0021826707,"MEAN_MOTION_DOT":0.00064449,"MEAN_MOTION_DDOT":0}]
